{
  "type": "FeatureCollection",
  "features": [
    {
      "type": "Feature",
      "properties": {
        "norad_id": 67067,
        "name": "HULIANWANG DIGUI-127",
        "group": "last-30-days",
        "lat": -26.507408469218582,
        "lon": -70.96945221862592,
        "alt_km": 800.3100298225681,
        "timestamp": "2025-12-26T13:39:17.668314+00:00",
        "meta_object_name": "HULIANWANG DIGUI-127",
        "meta_object_id": "2025-295J",
        "meta_epoch": "2025-12-22T15:39:07.411968",
        "meta_mean_motion": 14.26251195,
        "meta_eccentricity": 0.00108509,
        "meta_inclination": 50.0053,
        "meta_ra_of_asc_node": 330.3407,
        "meta_arg_of_pericenter": 289.3117,
        "meta_mean_anomaly": 70.6623,
        "meta_ephemeris_type": 0,
        "meta_classification_type": "U",
        "meta_norad_cat_id": 67067,
        "meta_element_set_no": 999,
        "meta_rev_at_epoch": 153,
        "meta_bstar": -0.00027534515,
        "meta_mean_motion_dot": -8.25e-06,
        "meta_mean_motion_ddot": 0,
        "tle_line1": "1 67067U 25295J   25356.65216912 -.00000825  00000+0 -27535-3 0  9993",
        "tle_line2": "2 67067  50.0053 330.3407 0010850 289.3117  70.6623 14.26251195  1535"
      },
      "geometry": {
        "type": "Point",
        "coordinates": [
          -70.96945221862592,
          -26.507408469218582
        ]
      }
    },
    {
      "type": "Feature",
      "properties": {
        "norad_id": 67068,
        "name": "CZ-12 R/B",
        "group": "last-30-days",
        "lat": 18.06596072732329,
        "lon": -31.780474879152514,
        "alt_km": 791.1542860243135,
        "timestamp": "2025-12-26T13:39:17.668324+00:00",
        "meta_object_name": "CZ-12 R/B",
        "meta_object_id": "2025-295K",
        "meta_epoch": "2025-12-26T05:13:20.285760",
        "meta_mean_motion": 14.41130382,
        "meta_eccentricity": 0.00569027,
        "meta_inclination": 49.9942,
        "meta_ra_of_asc_node": 313.8428,
        "meta_arg_of_pericenter": 184.2362,
        "meta_mean_anomaly": 175.8083,
        "meta_ephemeris_type": 0,
        "meta_classification_type": "U",
        "meta_norad_cat_id": 67068,
        "meta_element_set_no": 999,
        "meta_rev_at_epoch": 205,
        "meta_bstar": 3.9028052e-05,
        "meta_mean_motion_dot": -3.9e-07,
        "meta_mean_motion_ddot": 0,
        "tle_line1": "1 67068U 25295K   25360.21759590 -.00000039  00000+0  39028-4 0  9992",
        "tle_line2": "2 67068  49.9942 313.8428 0056902 184.2362 175.8083 14.41130382  2059"
      },
      "geometry": {
        "type": "Point",
        "coordinates": [
          -31.780474879152514,
          18.06596072732329
        ]
      }
    },
    {
      "type": "Feature",
      "properties": {
        "norad_id": 67069,
        "name": "XIWANG-5 02",
        "group": "last-30-days",
        "lat": -24.13625056917958,
        "lon": -126.68712260637797,
        "alt_km": 517.8404043377541,
        "timestamp": "2025-12-26T13:39:17.668336+00:00",
        "meta_object_name": "XIWANG-5 02",
        "meta_object_id": "2025-296A",
        "meta_epoch": "2025-12-23T12:00:44.103744",
        "meta_mean_motion": 15.16891516,
        "meta_eccentricity": 0.00145566,
        "meta_inclination": 41.3523,
        "meta_ra_of_asc_node": 40.1941,
        "meta_arg_of_pericenter": 102.8792,
        "meta_mean_anomaly": 257.3656,
        "meta_ephemeris_type": 0,
        "meta_classification_type": "U",
        "meta_norad_cat_id": 67069,
        "meta_element_set_no": 999,
        "meta_rev_at_epoch": 159,
        "meta_bstar": 0.00060249038,
        "meta_mean_motion_dot": 0.00011945,
        "meta_mean_motion_ddot": 0,
        "tle_line1": "1 67069U 25296A   25357.50051046  .00011945  00000+0  60249-3 0  9998",
        "tle_line2": "2 67069  41.3523  40.1941 0014556 102.8792 257.3656 15.16891516  1599"
      },
      "geometry": {
        "type": "Point",
        "coordinates": [
          -126.68712260637797,
          -24.13625056917958
        ]
      }
    },
    {
      "type": "Feature",
      "properties": {
        "norad_id": 67070,
        "name": "DEAR-5",
        "group": "last-30-days",
        "lat": -26.806736173004154,
        "lon": -122.26178411811597,
        "alt_km": 518.7657137028791,
        "timestamp": "2025-12-26T13:39:17.668351+00:00",
        "meta_object_name": "DEAR-5",
        "meta_object_id": "2025-296B",
        "meta_epoch": "2025-12-23T23:03:08.623008",
        "meta_mean_motion": 15.16917161,
        "meta_eccentricity": 0.0016166,
        "meta_inclination": 41.3551,
        "meta_ra_of_asc_node": 37.5614,
        "meta_arg_of_pericenter": 107.8349,
        "meta_mean_anomaly": 252.4237,
        "meta_ephemeris_type": 0,
        "meta_classification_type": "U",
        "meta_norad_cat_id": 67070,
        "meta_element_set_no": 999,
        "meta_rev_at_epoch": 165,
        "meta_bstar": 0.0002755,
        "meta_mean_motion_dot": 5.352e-05,
        "meta_mean_motion_ddot": 0,
        "tle_line1": "1 67070U 25296B   25357.96051647  .00005352  00000+0  27550-3 0  9990",
        "tle_line2": "2 67070  41.3551  37.5614 0016166 107.8349 252.4237 15.16917161  1654"
      },
      "geometry": {
        "type": "Point",
        "coordinates": [
          -122.26178411811597,
          -26.806736173004154
        ]
      }
    },
    {
      "type": "Feature",
      "properties": {
        "norad_id": 67071,
        "name": "KZ-11 R/B",
        "group": "last-30-days",
        "lat": -35.046637172758786,
        "lon": -30.42108228971896,
        "alt_km": 254.17496323539945,
        "timestamp": "2025-12-26T13:39:17.668361+00:00",
        "meta_object_name": "KZ-11 R/B",
        "meta_object_id": "2025-296C",
        "meta_epoch": "2025-12-24T07:54:11.602080",
        "meta_mean_motion": 15.73894626,
        "meta_eccentricity": 0.03315074,
        "meta_inclination": 41.3001,
        "meta_ra_of_asc_node": 37.0775,
        "meta_arg_of_pericenter": 35.4688,
        "meta_mean_anomaly": 326.7718,
        "meta_ephemeris_type": 0,
        "meta_classification_type": "U",
        "meta_norad_cat_id": 67071,
        "meta_element_set_no": 999,
        "meta_rev_at_epoch": 169,
        "meta_bstar": 0.00038975112,
        "meta_mean_motion_dot": 0.10609436,
        "meta_mean_motion_ddot": 7.766669e-06,
        "tle_line1": "1 67071U 25296C   25358.32930095  .10609436  77667-5  38975-3 0  9991",
        "tle_line2": "2 67071  41.3001  37.0775 0331507  35.4688 326.7718 15.73894626  1695"
      },
      "geometry": {
        "type": "Point",
        "coordinates": [
          -30.42108228971896,
          -35.046637172758786
        ]
      }
    },
    {
      "type": "Feature",
      "properties": {
        "norad_id": 67073,
        "name": "RAISE-4",
        "group": "last-30-days",
        "lat": -31.14226082219939,
        "lon": 152.3020307205872,
        "alt_km": 546.6345224630331,
        "timestamp": "2025-12-26T13:39:17.668372+00:00",
        "meta_object_name": "RAISE-4",
        "meta_object_id": "2025-297B",
        "meta_epoch": "2025-12-26T05:49:38.831520",
        "meta_mean_motion": 15.07241062,
        "meta_eccentricity": 0.00116575,
        "meta_inclination": 97.4854,
        "meta_ra_of_asc_node": 147.4279,
        "meta_arg_of_pericenter": 270.097,
        "meta_mean_anomaly": 89.8922,
        "meta_ephemeris_type": 0,
        "meta_classification_type": "U",
        "meta_norad_cat_id": 67073,
        "meta_element_set_no": 999,
        "meta_rev_at_epoch": 182,
        "meta_bstar": 0.00036844967,
        "meta_mean_motion_dot": 5.5e-05,
        "meta_mean_motion_ddot": 0,
        "tle_line1": "1 67073U 25297B   25360.24281055  .00005500  00000+0  36845-3 0  9999",
        "tle_line2": "2 67073  97.4854 147.4279 0011657 270.0970  89.8922 15.07241062  1828"
      },
      "geometry": {
        "type": "Point",
        "coordinates": [
          152.3020307205872,
          -31.14226082219939
        ]
      }
    },
    {
      "type": "Feature",
      "properties": {
        "norad_id": 67074,
        "name": "ELECTRON KICK STAGE R/B",
        "group": "last-30-days",
        "lat": 22.715587116474712,
        "lon": 145.55409984037723,
        "alt_km": 506.3549713876655,
        "timestamp": "2025-12-26T13:39:17.668382+00:00",
        "meta_object_name": "ELECTRON KICK STAGE R/B",
        "meta_object_id": "2025-297C",
        "meta_epoch": "2025-12-25T23:42:12.160800",
        "meta_mean_motion": 15.60381011,
        "meta_eccentricity": 0.01881795,
        "meta_inclination": 97.4815,
        "meta_ra_of_asc_node": 148.0945,
        "meta_arg_of_pericenter": 221.4493,
        "meta_mean_anomaly": 137.2363,
        "meta_ephemeris_type": 0,
        "meta_classification_type": "U",
        "meta_norad_cat_id": 67074,
        "meta_element_set_no": 999,
        "meta_rev_at_epoch": 184,
        "meta_bstar": 0.0017982149,
        "meta_mean_motion_dot": 0.00359366,
        "meta_mean_motion_ddot": 3.7348159e-05,
        "tle_line1": "1 67074U 25297C   25359.98764075  .00359366  37348-4  17982-2 0  9999",
        "tle_line2": "2 67074  97.4815 148.0945 0188179 221.4493 137.2363 15.60381011  1844"
      },
      "geometry": {
        "type": "Point",
        "coordinates": [
          145.55409984037723,
          22.715587116474712
        ]
      }
    }
  ]
}